{
    "links": {
        "self": "http://www.neowsapp.com/rest/v1/neo/54049861?api_key=iIulBulltgU6a56xZRHN4H3l9WmuAYTsLGpBGhQ2"
    },
    "id": "54049861",
    "neo_reference_id": "54049861",
    "name": "(2020 OF6)",
    "designation": "2020 OF6",
    "nasa_jpl_url": "http://ssd.jpl.nasa.gov/sbdb.cgi?sstr=54049861",
    "absolute_magnitude_h": 24.96,
    "estimated_diameter": {
        "kilometers": {
            "estimated_diameter_min": 0.0270741591,
            "estimated_diameter_max": 0.0605396602
        },
        "meters": {
            "estimated_diameter_min": 27.0741590945,
            "estimated_diameter_max": 60.5396601689
        },
        "miles": {
            "estimated_diameter_min": 0.0168230973,
            "estimated_diameter_max": 0.0376175892
        },
        "feet": {
            "estimated_diameter_min": 88.8259841235,
            "estimated_diameter_max": 198.6209386685
        }
    },
    "is_potentially_hazardous_asteroid": false,
    "close_approach_data": [
        {
            "close_approach_date": "2020-07-20",
            "close_approach_date_full": "2020-Jul-20 15:48",
            "epoch_date_close_approach": 1595260080000,
            "relative_velocity": {
                "kilometers_per_second": "7.9379014764",
                "kilometers_per_hour": "28576.4453150851",
                "miles_per_hour": "17756.2918125872"
            },
            "miss_distance": {
                "astronomical": "0.0529966189",
                "lunar": "20.6156847521",
                "kilometers": "7928181.304641743",
                "miles": "4926343.4251243334"
            },
            "orbiting_body": "Earth"
        }
    ],
    "orbital_data": {
        "orbit_id": "1",
        "orbit_determination_date": "2020-07-31 13:42:08",
        "first_observation_date": "2020-07-29",
        "last_observation_date": "2020-07-31",
        "data_arc_in_days": 2,
        "observations_used": 18,
        "orbit_uncertainty": "9",
        "minimum_orbit_intersection": ".0281036",
        "jupiter_tisserand_invariant": "3.399",
        "epoch_osculation": "2459060.5",
        "eccentricity": ".5409495585723959",
        "semi_major_axis": "2.269819984974115",
        "inclination": "4.886113345845239",
        "ascending_node_longitude": "136.4355358223663",
        "orbital_period": "1249.066469524243",
        "perihelion_distance": "1.041961866063565",
        "perihelion_argument": "175.9964991574066",
        "aphelion_distance": "3.497678103884664",
        "perihelion_time": "2459062.235944556154",
        "mean_anomaly": "359.4996743124059",
        "mean_motion": ".288215246172704",
        "equinox": "J2000",
        "orbit_class": {
            "orbit_class_type": "AMO",
            "orbit_class_description": "Near-Earth asteroid orbits similar to that of 1221 Amor",
            "orbit_class_range": "1.017 AU < q (perihelion) < 1.3 AU"
        }
    },
    "is_sentry_object": false
}